{"type": "FeatureCollection", "features": [ {"type": "Feature", "properties": {"norad_id": 30411, "name": "FENGYUN 1C DEB", "group": "fengyun-1c-debris", "lat": -31.3274435619498, "lon": 69.93241660465857, "alt_km": 885.6528766152178, "timestamp": "2025-12-10T11:33:53.661576+00:00", "meta": {"OBJECT_NAME": "FENGYUN 1C DEB", "OBJECT_ID": "1999-025AEA", "EPOCH": "2025-12-09T17:30:56.672640", "MEAN_MOTION": 14.07622531, "ECCENTRICITY": 0.0122367, "INCLINATION": 98.5818, "RA_OF_ASC_NODE": 254.4913, "ARG_OF_PERICENTER": 115.1586, "MEAN_ANOMALY": 246.2334, "EPHEMERIS_TYPE": 0, "CLASSIFICATION_TYPE": "U", "NORAD_CAT_ID": 30411, "ELEMENT_SET_NO": 999, "REV_AT_EPOCH": 95941, "BSTAR": 0.0022166, "MEAN_MOTION_DOT": 3.969e-05, "MEAN_MOTION_DDOT": 0}, "tle": {"line1": "1 30411U 99025AEA 25343.72982260  .00003969  00000+0  22166-2 0  9992", "line2": "2 30411  98.5818 254.4913 0122367 115.1586 246.2334 14.07622531959419"}}, "geometry": {"type": "Point", "coordinates": [69.93241660465857, -31.3274435619498]}}, {"type": "Feature", "properties": {"norad_id": 30413, "name": "FENGYUN 1C DEB", "group": "fengyun-1c-debris", "lat": 39.6476206178462, "lon": -153.70563889909494, "alt_km": 812.8103130653553, "timestamp": "2025-12-10T11:33:53.661586+00:00", "meta": {"OBJECT_NAME": "FENGYUN 1C DEB", "OBJECT_ID": "1999-025AEC", "EPOCH": "2025-12-10T03:41:56.044032", "MEAN_MOTION": 14.3248833, "ECCENTRICITY": 0.0045574, "INCLINATION": 102.0617, "RA_OF_ASC_NODE": 216.046, "ARG_OF_PERICENTER": 223.6579, "MEAN_ANOMALY": 287.7897, "EPHEMERIS_TYPE": 0, "CLASSIFICATION_TYPE": "U", "NORAD_CAT_ID": 30413, "ELEMENT_SET_NO": 999, "REV_AT_EPOCH": 97102, "BSTAR": 0.0030165, "MEAN_MOTION_DOT": 8.206e-05, "MEAN_MOTION_DDOT": 0}, "tle": {"line1": "1 30413U 99025AEC 25344.15412088  .00008206  00000+0  30165-2 0  9995", "line2": "2 30413 102.0617 216.0460 0045574 223.6579 287.7897 14.32488330971021"}}, "geometry": {"type": "Point", "coordinates": [-153.70563889909494, 39.6476206178462]}}, {"type": "Feature", "properties": {"norad_id": 30414, "name": "FENGYUN 1C DEB", "group": "fengyun-1c-debris", "lat": 62.84815842300554, "lon": -20.20985219723867, "alt_km": 764.0805510236241, "timestamp": "2025-12-10T11:33:53.661596+00:00", "meta": {"OBJECT_NAME": "FENGYUN 1C DEB", "OBJECT_ID": "1999-025AED", "EPOCH": "2025-12-09T09:54:22.648896", "MEAN_MOTION": 14.34079108, "ECCENTRICITY": 0.00585357, "INCLINATION": 99.0812, "RA_OF_ASC_NODE": 140.4969, "ARG_OF_PERICENTER": 198.3555, "MEAN_ANOMALY": 161.5516, "EPHEMERIS_TYPE": 0, "CLASSIFICATION_TYPE": "U", "NORAD_CAT_ID": 30414, "ELEMENT_SET_NO": 999, "REV_AT_EPOCH": 97039, "BSTAR": 0.0038263836, "MEAN_MOTION_DOT": 0.00010876, "MEAN_MOTION_DDOT": 0}, "tle": {"line1": "1 30414U 99025AED 25343.41276214  .00010876  00000+0  38264-2 0  9997", "line2": "2 30414  99.0812 140.4969 0058535 198.3555 161.5516 14.34079108970398"}}, "geometry": {"type": "Point", "coordinates": [-20.20985219723867, 62.84815842300554]}}, {"type": "Feature", "properties": {"norad_id": 30415, "name": "FENGYUN 1C DEB", "group": "fengyun-1c-debris", "lat": 11.470267096900676, "lon": 42.748745630912744, "alt_km": 1020.9395081811308, "timestamp": "2025-12-10T11:33:53.661607+00:00", "meta": {"OBJECT_NAME": "FENGYUN 1C DEB", "OBJECT_ID": "1999-025AEE", "EPOCH": "2025-12-09T20:02:03.459264", "MEAN_MOTION": 13.68924286, "ECCENTRICITY": 0.0238285, "INCLINATION": 99.6457, "RA_OF_ASC_NODE": 44.0786, "ARG_OF_PERICENTER": 276.7341, "MEAN_ANOMALY": 144.9216, "EPHEMERIS_TYPE": 0, "CLASSIFICATION_TYPE": "U", "NORAD_CAT_ID": 30415, "ELEMENT_SET_NO": 999, "REV_AT_EPOCH": 93838, "BSTAR": 0.0018347, "MEAN_MOTION_DOT": 1.884e-05, "MEAN_MOTION_DDOT": 0}, "tle": {"line1": "1 30415U 99025AEE 25343.83476226  .00001884  00000+0  18347-2 0  9998", "line2": "2 30415  99.6457  44.0786 0238285 276.7341 144.9216 13.68924286938389"}}, "geometry": {"type": "Point", "coordinates": [42.748745630912744, 11.470267096900676]}}, {"type": "Feature", "properties": {"norad_id": 30416, "name": "FENGYUN 1C DEB", "group": "fengyun-1c-debris", "lat": -31.80420898229774, "lon": -176.57510545842771, "alt_km": 852.0301216891394, "timestamp": "2025-12-10T11:33:53.661617+00:00", "meta": {"OBJECT_NAME": "FENGYUN 1C DEB", "OBJECT_ID": "1999-025AEF", "EPOCH": "2025-12-10T00:17:04.031808", "MEAN_MOTION": 14.02625179, "ECCENTRICITY": 0.0055368, "INCLINATION": 98.8349, "RA_OF_ASC_NODE": 8.5037, "ARG_OF_PERICENTER": 197.4208, "MEAN_ANOMALY": 162.506, "EPHEMERIS_TYPE": 0, "CLASSIFICATION_TYPE": "U", "NORAD_CAT_ID": 30416, "ELEMENT_SET_NO": 999, "REV_AT_EPOCH": 96586, "BSTAR": 0.0004612, "MEAN_MOTION_DOT": 6.78e-06, "MEAN_MOTION_DDOT": 0}, "tle": {"line1": "1 30416U 99025AEF 25344.01185222  .00000678  00000+0  46120-3 0  9994", "line2": "2 30416  98.8349   8.5037 0055368 197.4208 162.5060 14.02625179965869"}}, "geometry": {"type": "Point", "coordinates": [-176.57510545842771, -31.80420898229774]}}, {"type": "Feature", "properties": {"norad_id": 30417, "name": "FENGYUN 1C DEB", "group": "fengyun-1c-debris", "lat": -28.43777466394829, "lon": -20.72256161320357, "alt_km": 891.3618552508033, "timestamp": "2025-12-10T11:33:53.661626+00:00", "meta": {"OBJECT_NAME": "FENGYUN 1C DEB", "OBJECT_ID": "1999-025AEG", "EPOCH": "2025-12-10T04:57:41.847840", "MEAN_MOTION": 14.14658607, "ECCENTRICITY": 0.0064371, "INCLINATION": 98.6929, "RA_OF_ASC_NODE": 334.257, "ARG_OF_PERICENTER": 127.1601, "MEAN_ANOMALY": 244.0378, "EPHEMERIS_TYPE": 0, "CLASSIFICATION_TYPE": "U", "NORAD_CAT_ID": 30417, "ELEMENT_SET_NO": 999, "REV_AT_EPOCH": 97353, "BSTAR": 0.00037143, "MEAN_MOTION_DOT": 6.86e-06, "MEAN_MOTION_DDOT": 0}, "tle": {"line1": "1 30417U 99025AEG 25344.20673435  .00000686  00000+0  37143-3 0  9998", "line2": "2 30417  98.6929 334.2570 0064371 127.1601 244.0378 14.14658607973530"}}, "geometry": {"type": "Point", "coordinates": [-20.72256161320357, -28.43777466394829]}}, {"type": "Feature", "properties": {"norad_id": 30418, "name": "FENGYUN 1C DEB", "group": "fengyun-1c-debris", "lat": -80.68856936766991, "lon": -107.65264521251453, "alt_km": 686.5123830399989, "timestamp": "2025-12-10T11:33:53.661636+00:00", "meta": {"OBJECT_NAME": "FENGYUN 1C DEB", "OBJECT_ID": "1999-025AEH", "EPOCH": "2025-12-10T04:41:05.095104", "MEAN_MOTION": 14.84133543, "ECCENTRICITY": 0.0111239, "INCLINATION": 98.841, "RA_OF_ASC_NODE": 143.7046, "ARG_OF_PERICENTER": 123.678, "MEAN_ANOMALY": 51.898, "EPHEMERIS_TYPE": 0, "CLASSIFICATION_TYPE": "U", "NORAD_CAT_ID": 30418, "ELEMENT_SET_NO": 999, "REV_AT_EPOCH": 554, "BSTAR": 0.0013372, "MEAN_MOTION_DOT": 0.00012416, "MEAN_MOTION_DDOT": 0}, "tle": {"line1": "1 30418U 99025AEH 25344.19519786  .00012416  00000+0  13372-2 0  9996", "line2": "2 30418  98.8410 143.7046 0111239 123.6780  51.8980 14.84133543  5548"}}, "geometry": {"type": "Point", "coordinates": [-107.65264521251453, -80.68856936766991]}}, {"type": "Feature", "properties": {"norad_id": 30419, "name": "FENGYUN 1C DEB", "group": "fengyun-1c-debris", "lat": -7.051816282868619, "lon": 110.02525978950307, "alt_km": 870.7095402441837, "timestamp": "2025-12-10T11:33:53.661646+00:00", "meta": {"OBJECT_NAME": "FENGYUN 1C DEB", "OBJECT_ID": "1999-025AEJ", "EPOCH": "2025-12-09T02:35:32.241120", "MEAN_MOTION": 14.18019185, "ECCENTRICITY": 0.00530566, "INCLINATION": 99.2402, "RA_OF_ASC_NODE": 289.7501, "ARG_OF_PERICENTER": 34.9633, "MEAN_ANOMALY": 342.3115, "EPHEMERIS_TYPE": 0, "CLASSIFICATION_TYPE": "U", "NORAD_CAT_ID": 30419, "ELEMENT_SET_NO": 999, "REV_AT_EPOCH": 97297, "BSTAR": 0.0010515, "MEAN_MOTION_DOT": 2.137e-05, "MEAN_MOTION_DDOT": 0}, "tle": {"line1": "1 30419U 99025AEJ 25343.10801205  .00002137  00000+0  10515-2 0  9992", "line2": "2 30419  99.2402 289.7501 0053056  34.9633 342.3115 14.18019185972975"}}, "geometry": {"type": "Point", "coordinates": [110.02525978950307, -7.051816282868619]}}, {"type": "Feature", "properties": {"norad_id": 30432, "name": "FENGYUN 1C DEB", "group": "fengyun-1c-debris", "lat": -4.324693013805853, "lon": -116.04730979428275, "alt_km": 701.3301395221724, "timestamp": "2025-12-10T11:33:53.661656+00:00", "meta": {"OBJECT_NAME": "FENGYUN 1C DEB", "OBJECT_ID": "1999-025AET", "EPOCH": "2025-12-10T03:15:02.293344", "MEAN_MOTION": 14.40659675, "ECCENTRICITY": 0.00832, "INCLINATION": 98.835, "RA_OF_ASC_NODE": 242.9211, "ARG_OF_PERICENTER": 346.6854, "MEAN_ANOMALY": 13.2138, "EPHEMERIS_TYPE": 0, "CLASSIFICATION_TYPE": "U", "NORAD_CAT_ID": 30432, "ELEMENT_SET_NO": 999, "REV_AT_EPOCH": 98697, "BSTAR": 0.0010804, "MEAN_MOTION_DOT": 3.545e-05, "MEAN_MOTION_DDOT": 0}, "tle": {"line1": "1 30432U 99025AET 25344.13544321  .00003545  00000+0  10804-2 0  9999", "line2": "2 30432  98.8350 242.9211 0083200 346.6854  13.2138 14.40659675986971"}}, "geometry": {"type": "Point", "coordinates": [-116.04730979428275, -4.324693013805853]}}, {"type": "Feature", "properties": {"norad_id": 30434, "name": "FENGYUN 1C DEB", "group": "fengyun-1c-debris", "lat": -11.801776763740301, "lon": 149.4723741269993, "alt_km": 868.3382799848578, "timestamp": "2025-12-10T11:33:53.661666+00:00", "meta": {"OBJECT_NAME": "FENGYUN 1C DEB", "OBJECT_ID": "1999-025AEV", "EPOCH": "2025-12-09T18:13:57.730080", "MEAN_MOTION": 13.90647214, "ECCENTRICITY": 0.012077, "INCLINATION": 98.9989, "RA_OF_ASC_NODE": 330.6704, "ARG_OF_PERICENTER": 239.3804, "MEAN_ANOMALY": 299.9531, "EPHEMERIS_TYPE": 0, "CLASSIFICATION_TYPE": "U", "NORAD_CAT_ID": 30434, "ELEMENT_SET_NO": 999, "REV_AT_EPOCH": 95665, "BSTAR": 0.00049837, "MEAN_MOTION_DOT": 6.16e-06, "MEAN_MOTION_DDOT": 0}, "tle": {"line1": "1 30434U 99025AEV 25343.75969595  .00000616  00000+0  49837-3 0  9997", "line2": "2 30434  98.9989 330.6704 0120770 239.3804 299.9531 13.90647214956653"}}, "geometry": {"type": "Point", "coordinates": [149.4723741269993, -11.801776763740301]}}]}